{
    "links": {
        "self": "http://www.neowsapp.com/rest/v1/neo/3825549?api_key=iIulBulltgU6a56xZRHN4H3l9WmuAYTsLGpBGhQ2"
    },
    "id": "3825549",
    "neo_reference_id": "3825549",
    "name": "(2018 NM)",
    "designation": "2018 NM",
    "nasa_jpl_url": "http://ssd.jpl.nasa.gov/sbdb.cgi?sstr=3825549",
    "absolute_magnitude_h": 26.4,
    "estimated_diameter": {
        "kilometers": {
            "estimated_diameter_min": 0.0139493823,
            "estimated_diameter_max": 0.0311917671
        },
        "meters": {
            "estimated_diameter_min": 13.9493822934,
            "estimated_diameter_max": 31.1917670523
        },
        "miles": {
            "estimated_diameter_min": 0.0086677416,
            "estimated_diameter_max": 0.0193816595
        },
        "feet": {
            "estimated_diameter_min": 45.7656914036,
            "estimated_diameter_max": 102.3351970157
        }
    },
    "is_potentially_hazardous_asteroid": false,
    "close_approach_data": [
        {
            "close_approach_date": "1983-07-13",
            "close_approach_date_full": "1983-Jul-13 20:01",
            "epoch_date_close_approach": 426974460000,
            "relative_velocity": {
                "kilometers_per_second": "7.023000858",
                "kilometers_per_hour": "25282.8030887592",
                "miles_per_hour": "15709.7506192348"
            },
            "miss_distance": {
                "astronomical": "0.0091694107",
                "lunar": "3.5669007623",
                "kilometers": "1371724.309875209",
                "miles": "852349.9621635242"
            },
            "orbiting_body": "Earth"
        },
        {
            "close_approach_date": "2005-10-26",
            "close_approach_date_full": "2005-Oct-26 08:12",
            "epoch_date_close_approach": 1130314320000,
            "relative_velocity": {
                "kilometers_per_second": "19.8790459059",
                "kilometers_per_hour": "71564.5652613023",
                "miles_per_hour": "44467.4377869464"
            },
            "miss_distance": {
                "astronomical": "0.4393011321",
                "lunar": "170.8881403869",
                "kilometers": "65718513.650748627",
                "miles": "40835590.8110679726"
            },
            "orbiting_body": "Earth"
        },
        {
            "close_approach_date": "2007-06-15",
            "close_approach_date_full": "2007-Jun-15 17:52",
            "epoch_date_close_approach": 1181929920000,
            "relative_velocity": {
                "kilometers_per_second": "16.3043249632",
                "kilometers_per_hour": "58695.5698675211",
                "miles_per_hour": "36471.1445101828"
            },
            "miss_distance": {
                "astronomical": "0.3195116957",
                "lunar": "124.2900496273",
                "kilometers": "47798269.116808159",
                "miles": "29700467.2002202342"
            },
            "orbiting_body": "Earth"
        },
        {
            "close_approach_date": "2018-07-17",
            "close_approach_date_full": "2018-Jul-17 03:26",
            "epoch_date_close_approach": 1531797960000,
            "relative_velocity": {
                "kilometers_per_second": "7.7921120893",
                "kilometers_per_hour": "28051.6035213062",
                "miles_per_hour": "17430.1755324472"
            },
            "miss_distance": {
                "astronomical": "0.0027118628",
                "lunar": "1.0549146292",
                "kilometers": "405688.898612236",
                "miles": "252083.3923354168"
            },
            "orbiting_body": "Moon"
        },
        {
            "close_approach_date": "2018-07-17",
            "close_approach_date_full": "2018-Jul-17 05:29",
            "epoch_date_close_approach": 1531805340000,
            "relative_velocity": {
                "kilometers_per_second": "6.7357381139",
                "kilometers_per_hour": "24248.6572099071",
                "miles_per_hour": "15067.1725869003"
            },
            "miss_distance": {
                "astronomical": "0.0035867325",
                "lunar": "1.3952389425",
                "kilometers": "536567.542259775",
                "miles": "333407.610443895"
            },
            "orbiting_body": "Earth"
        }
    ],
    "orbital_data": {
        "orbit_id": "7",
        "orbit_determination_date": "2020-09-08 06:50:48",
        "first_observation_date": "2018-07-04",
        "last_observation_date": "2018-07-17",
        "data_arc_in_days": 13,
        "observations_used": 38,
        "orbit_uncertainty": "6",
        "minimum_orbit_intersection": ".00234422",
        "jupiter_tisserand_invariant": "4.431",
        "epoch_osculation": "2459000.5",
        "eccentricity": ".3603027084565904",
        "semi_major_axis": "1.520344232110906",
        "inclination": "1.451068310136898",
        "ascending_node_longitude": "108.4110798138262",
        "orbital_period": "684.7173350991837",
        "perihelion_distance": ".9725600874949913",
        "perihelion_argument": "218.2590955774614",
        "aphelion_distance": "2.068128376726821",
        "perihelion_time": "2459029.232605321458",
        "mean_anomaly": "344.8934189548064",
        "mean_motion": ".5257644016678105",
        "equinox": "J2000",
        "orbit_class": {
            "orbit_class_type": "APO",
            "orbit_class_description": "Near-Earth asteroid orbits which cross the Earth’s orbit similar to that of 1862 Apollo",
            "orbit_class_range": "a (semi-major axis) > 1.0 AU; q (perihelion) < 1.017 AU"
        }
    },
    "is_sentry_object": false
}